{
  "type": "FeatureCollection",
  "features": [
    {
      "type": "Feature",
      "properties": {
        "wardNumber": 150,
        "wardName": "Bellandur",
        "wardSlug": "150-bellandur",
        "zone": "Mahadevapura"
      },
      "geometry": {
        "type": "Polygon",
        "coordinates": [
          [
            [
              77.65,
              12.925
            ],
            [
              77.68,
              12.925
            ],
            [
              77.68,
              12.955
            ],
            [
              77.65,
              12.955
            ],
            [
              77.65,
              12.925
            ]
          ]
        ]
      }
    },
    {
      "type": "Feature",
      "properties": {
        "wardNumber": 168,
        "wardName": "Jayanagar",
        "wardSlug": "168-jayanagar",
        "zone": "South"
      },
      "geometry": {
        "type": "Polygon",
        "coordinates": [
          [
            [
              77.575,
              12.92
            ],
            [
              77.595,
              12.92
            ],
            [
              77.595,
              12.94
            ],
            [
              77.575,
              12.94
            ],
            [
              77.575,
              12.92
            ]
          ]
        ]
      }
    },
    {
      "type": "Feature",
      "properties": {
        "wardNumber": 176,
        "wardName": "BTM Layout",
        "wardSlug": "176-btm-layout",
        "zone": "South"
      },
      "geometry": {
        "type": "Polygon",
        "coordinates": [
          [
            [
              77.6,
              12.905
            ],
            [
              77.625,
              12.905
            ],
            [
              77.625,
              12.93
            ],
            [
              77.6,
              12.93
            ],
            [
              77.6,
              12.905
            ]
          ]
        ]
      }
    }
  ]
}